start=new Date('2023-03-13T00:00:00.000Z').valueOf();
sats=[{"MEAN_MOTION_DDOT":"0.0000000000000","MEAN_ELEMENT_THEORY":"SGP4","EPOCH":"2023-03-12T15:07:40.398816","REF_FRAME":"TEME","RA_OF_ASC_NODE":"134.0807","EPHEMERIS_TYPE":"0","MEAN_MOTION_DOT":"0.00010193","ELEMENT_SET_NO":"999","CENTER_NAME":"EARTH","OBJECT_TYPE":"PAYLOAD","TLE_LINE1":"1 53223U 22084AL  23071.63032869  .00010193  00000-0  79663-3 0  9999","BSTAR":"0.00079663000000","REV_AT_EPOCH":"3532","MEAN_MOTION":"15.01278523","PERIOD":"95.918","TLE_LINE2":"2 53223  97.6550 134.0807 0001652 119.2673 240.8717 15.01278523 35321","DECAY_DATE":null,"SEMIMAJOR_AXIS":"6941.090","MEAN_ANOMALY":"240.8717","ECCENTRICITY":"0.00016520","FILE":"3858743","COUNTRY_CODE":"US","OBJECT_ID":"2022-084AL","NORAD_CAT_ID":"53223","PERIAPSIS":"561.808","RCS_SIZE":"LARGE","CLASSIFICATION_TYPE":"U","SITE":"AFWTR","GP_ID":"227962999","LAUNCH_DATE":"2022-07-22","INCLINATION":"97.6550","OBJECT_NAME":"STARLINK-4354","APOAPSIS":"564.101","TIME_SYSTEM":"UTC","ARG_OF_PERICENTER":"119.2673"},{"MEAN_ELEMENT_THEORY":"SGP4","MEAN_MOTION_DDOT":"0.0000000000000","RA_OF_ASC_NODE":"134.0905","REF_FRAME":"TEME","EPOCH":"2023-03-12T15:15:41.849856","ELEMENT_SET_NO":"999","MEAN_MOTION_DOT":"-0.00002119","EPHEMERIS_TYPE":"0","BSTAR":"-0.00016055000000","TLE_LINE1":"1 53224U 22084AM  23071.63590104 -.00002119  00000-0 -16055-3 0  9998","OBJECT_TYPE":"PAYLOAD","CENTER_NAME":"EARTH","MEAN_MOTION":"15.01230283","PERIOD":"95.921","REV_AT_EPOCH":"3532","SEMIMAJOR_AXIS":"6941.238","DECAY_DATE":null,"TLE_LINE2":"2 53224  97.6559 134.0905 0001717  96.7458 263.3961 15.01230283 35324","ECCENTRICITY":"0.00017170","MEAN_ANOMALY":"263.3961","COUNTRY_CODE":"US","FILE":"3858743","OBJECT_ID":"2022-084AM","NORAD_CAT_ID":"53224","SITE":"AFWTR","CLASSIFICATION_TYPE":"U","RCS_SIZE":"LARGE","PERIAPSIS":"561.912","INCLINATION":"97.6559","OBJECT_NAME":"STARLINK-4356","LAUNCH_DATE":"2022-07-22","GP_ID":"227963249","TIME_SYSTEM":"UTC","APOAPSIS":"564.295","ARG_OF_PERICENTER":"96.7458"},{"BSTAR":"-0.00014257000000","TLE_LINE1":"1 53225U 22084AN  23071.16005414 -.00001889  00000-0 -14257-3 0  9997","OBJECT_TYPE":"PAYLOAD","CENTER_NAME":"EARTH","MEAN_MOTION":"15.01253334","PERIOD":"95.920","REV_AT_EPOCH":"3525","SEMIMAJOR_AXIS":"6941.167","DECAY_DATE":null,"TLE_LINE2":"2 53225  97.6541 133.6133 0001616 106.5642 253.5760 15.01253334 35259","ECCENTRICITY":"0.00016160","MEAN_ANOMALY":"253.5760","MEAN_ELEMENT_THEORY":"SGP4","MEAN_MOTION_DDOT":"0.0000000000000","RA_OF_ASC_NODE":"133.6133","EPOCH":"2023-03-12T03:50:28.677696","REF_FRAME":"TEME","ELEMENT_SET_NO":"999","MEAN_MOTION_DOT":"-0.00001889","EPHEMERIS_TYPE":"0","CLASSIFICATION_TYPE":"U","SITE":"AFWTR","RCS_SIZE":"LARGE","PERIAPSIS":"561.911","OBJECT_NAME":"STARLINK-4358","INCLINATION":"97.6541","LAUNCH_DATE":"2022-07-22","GP_ID":"227932283","TIME_SYSTEM":"UTC","APOAPSIS":"564.154","ARG_OF_PERICENTER":"106.5642","COUNTRY_CODE":"US","FILE":"3858534","OBJECT_ID":"2022-084AN","NORAD_CAT_ID":"53225"},{"MEAN_ELEMENT_THEORY":"SGP4","MEAN_MOTION_DDOT":"0.0000000000000","RA_OF_ASC_NODE":"133.6178","REF_FRAME":"TEME","EPOCH":"2023-03-12T03:56:10.566816","MEAN_MOTION_DOT":"0.00015110","EPHEMERIS_TYPE":"0","ELEMENT_SET_NO":"999","OBJECT_TYPE":"PAYLOAD","CENTER_NAME":"EARTH","BSTAR":"0.00117830000000","TLE_LINE1":"1 53226U 22084AP  23071.16401119  .00015110  00000-0  11783-2 0  9990","REV_AT_EPOCH":"3526","PERIOD":"95.919","MEAN_MOTION":"15.01264561","TLE_LINE2":"2 53226  97.6538 133.6178 0002133 105.8485 254.2975 15.01264561 35268","SEMIMAJOR_AXIS":"6941.133","DECAY_DATE":null,"ECCENTRICITY":"0.00021330","MEAN_ANOMALY":"254.2975","COUNTRY_CODE":"US","FILE":"3858653","OBJECT_ID":"2022-084AP","NORAD_CAT_ID":"53226","PERIAPSIS":"561.517","SITE":"AFWTR","CLASSIFICATION_TYPE":"U","RCS_SIZE":"LARGE","GP_ID":"227938510","INCLINATION":"97.6538","OBJECT_NAME":"STARLINK-4359","LAUNCH_DATE":"2022-07-22","APOAPSIS":"564.478","TIME_SYSTEM":"UTC","ARG_OF_PERICENTER":"105.8485"},{"ELEMENT_SET_NO":"999","EPHEMERIS_TYPE":"0","MEAN_MOTION_DOT":"0.00011226","RA_OF_ASC_NODE":"133.6096","EPOCH":"2023-03-12T03:45:30.615840","REF_FRAME":"TEME","MEAN_ELEMENT_THEORY":"SGP4","MEAN_MOTION_DDOT":"0.0000000000000","ECCENTRICITY":"0.00016150","MEAN_ANOMALY":"242.8099","SEMIMAJOR_AXIS":"6941.120","DECAY_DATE":null,"TLE_LINE2":"2 53227  97.6547 133.6096 0001615 117.3290 242.8099 15.01268782 35252","MEAN_MOTION":"15.01268782","PERIOD":"95.919","REV_AT_EPOCH":"3525","BSTAR":"0.00087704000000","TLE_LINE1":"1 53227U 22084AQ  23071.15660435  .00011226  00000-0  87704-3 0  9999","OBJECT_TYPE":"PAYLOAD","CENTER_NAME":"EARTH","NORAD_CAT_ID":"53227","OBJECT_ID":"2022-084AQ","COUNTRY_CODE":"US","FILE":"3858653","ARG_OF_PERICENTER":"117.3290","TIME_SYSTEM":"UTC","APOAPSIS":"564.106","INCLINATION":"97.6547","OBJECT_NAME":"STARLINK-4366","LAUNCH_DATE":"2022-07-22","GP_ID":"227938509","SITE":"AFWTR","CLASSIFICATION_TYPE":"U","RCS_SIZE":"LARGE","PERIAPSIS":"561.864"},{"NORAD_CAT_ID":"53228","OBJECT_ID":"2022-084AR","FILE":"3858534","COUNTRY_CODE":"US","ARG_OF_PERICENTER":"119.2282","TIME_SYSTEM":"UTC","APOAPSIS":"563.945","LAUNCH_DATE":"2022-07-22","INCLINATION":"97.6537","OBJECT_NAME":"STARLINK-4365","GP_ID":"227931532","RCS_SIZE":"LARGE","SITE":"AFWTR","CLASSIFICATION_TYPE":"U","PERIAPSIS":"561.920","ELEMENT_SET_NO":"999","MEAN_MOTION_DOT":"0.00016387","EPHEMERIS_TYPE":"0","RA_OF_ASC_NODE":"133.8808","REF_FRAME":"TEME","EPOCH":"2023-03-12T10:17:03.989760","MEAN_ELEMENT_THEORY":"SGP4","MEAN_MOTION_DDOT":"0.0000000000000","MEAN_ANOMALY":"240.9088","ECCENTRICITY":"0.00014590","DECAY_DATE":null,"SEMIMAJOR_AXIS":"6941.068","TLE_LINE2":"2 53228  97.6537 133.8808 0001459 119.2282 240.9088 15.01285675 35294","PERIOD":"95.918","MEAN_MOTION":"15.01285675","REV_AT_EPOCH":"3529","TLE_LINE1":"1 53228U 22084AR  23071.42851840  .00016387  00000-0  12766-2 0  9990","BSTAR":"0.00127660000000","CENTER_NAME":"EARTH","OBJECT_TYPE":"PAYLOAD"},{"CENTER_NAME":"EARTH","OBJECT_TYPE":"PAYLOAD","TLE_LINE1":"1 53229U 22084AS  23071.62292334  .00008639  00000-0  67617-3 0  9997","BSTAR":"0.00067617000000","REV_AT_EPOCH":"3532","PERIOD":"95.919","MEAN_MOTION":"15.01272920","TLE_LINE2":"2 53229  97.6543 134.0707 0000893  98.3631 261.7694 15.01272920 35326","DECAY_DATE":null,"SEMIMAJOR_AXIS":"6941.107","MEAN_ANOMALY":"261.7694","ECCENTRICITY":"0.00008930","MEAN_MOTION_DDOT":"0.0000000000000","MEAN_ELEMENT_THEORY":"SGP4","RA_OF_ASC_NODE":"134.0707","REF_FRAME":"TEME","EPOCH":"2023-03-12T14:57:00.576576","EPHEMERIS_TYPE":"0","MEAN_MOTION_DOT":"0.00008639","ELEMENT_SET_NO":"999","PERIAPSIS":"562.352","RCS_SIZE":"LARGE","CLASSIFICATION_TYPE":"U","SITE":"AFWTR","GP_ID":"227964000","LAUNCH_DATE":"2022-07-22","INCLINATION":"97.6543","OBJECT_NAME":"STARLINK-4367","APOAPSIS":"563.592","TIME_SYSTEM":"UTC","ARG_OF_PERICENTER":"98.3631","FILE":"3858743","COUNTRY_CODE":"US","OBJECT_ID":"2022-084AS","NORAD_CAT_ID":"53229"},{"ECCENTRICITY":"0.00015620","MEAN_ANOMALY":"240.1548","TLE_LINE2":"2 53230  97.6546 134.0071 0001562 119.9831 240.1548 15.01279887 35318","SEMIMAJOR_AXIS":"6941.086","DECAY_DATE":null,"REV_AT_EPOCH":"3531","PERIOD":"95.918","MEAN_MOTION":"15.01279887","OBJECT_TYPE":"PAYLOAD","CENTER_NAME":"EARTH","BSTAR":"0.00091033000000","TLE_LINE1":"1 53230U 22084AT  23071.55812146  .00011659  00000-0  91033-3 0  9995","EPHEMERIS_TYPE":"0","MEAN_MOTION_DOT":"0.00011659","ELEMENT_SET_NO":"999","EPOCH":"2023-03-12T13:23:41.694144","RA_OF_ASC_NODE":"134.0071","REF_FRAME":"TEME","MEAN_MOTION_DDOT":"0.0000000000000","MEAN_ELEMENT_THEORY":"SGP4","ARG_OF_PERICENTER":"119.9831","APOAPSIS":"564.035","TIME_SYSTEM":"UTC","GP_ID":"227964750","OBJECT_NAME":"STARLINK-4364","INCLINATION":"97.6546","LAUNCH_DATE":"2022-07-22","PERIAPSIS":"561.866","CLASSIFICATION_TYPE":"U","SITE":"AFWTR","RCS_SIZE":"LARGE","NORAD_CAT_ID":"53230","OBJECT_ID":"2022-084AT","COUNTRY_CODE":"US","FILE":"3858743"},{"MEAN_MOTION_DOT":"0.00004818","EPHEMERIS_TYPE":"0","ELEMENT_SET_NO":"999","EPOCH":"2023-03-12T14:51:40.753152","REF_FRAME":"TEME","RA_OF_ASC_NODE":"134.0675","MEAN_MOTION_DDOT":"0.0000000000000","MEAN_ELEMENT_THEORY":"SGP4","MEAN_ANOMALY":"261.7697","ECCENTRICITY":"0.00010680","TLE_LINE2":"2 53231  97.6544 134.0675 0001068  98.3649 261.7697 15.01267185 35328","DECAY_DATE":null,"SEMIMAJOR_AXIS":"6941.125","REV_AT_EPOCH":"3532","MEAN_MOTION":"15.01267185","PERIOD":"95.919","CENTER_NAME":"EARTH","OBJECT_TYPE":"PAYLOAD","TLE_LINE1":"1 53231U 22084AU  23071.61922168  .00004818  00000-0  37937-3 0  9991","BSTAR":"0.00037937000000","NORAD_CAT_ID":"53231","OBJECT_ID":"2022-084AU","FILE":"3858743","COUNTRY_CODE":"US","ARG_OF_PERICENTER":"98.3649","APOAPSIS":"563.731","TIME_SYSTEM":"UTC","GP_ID":"227963000","LAUNCH_DATE":"2022-07-22","INCLINATION":"97.6544","OBJECT_NAME":"STARLINK-4370","PERIAPSIS":"562.248","RCS_SIZE":"LARGE","SITE":"AFWTR","CLASSIFICATION_TYPE":"U"},{"RCS_SIZE":"LARGE","SITE":"AFWTR","CLASSIFICATION_TYPE":"U","PERIAPSIS":"562.165","LAUNCH_DATE":"2022-07-22","INCLINATION":"97.6544","OBJECT_NAME":"STARLINK-4371","GP_ID":"227932033","TIME_SYSTEM":"UTC","APOAPSIS":"563.788","ARG_OF_PERICENTER":"94.3682","FILE":"3858534","COUNTRY_CODE":"US","OBJECT_ID":"2022-084AV","NORAD_CAT_ID":"53232","TLE_LINE1":"1 53232U 22084AV  23071.15450870  .00013488  00000-0  10524-2 0  9992","BSTAR":"0.00105240000000","CENTER_NAME":"EARTH","OBJECT_TYPE":"PAYLOAD","PERIOD":"95.919","MEAN_MOTION":"15.01271602","REV_AT_EPOCH":"3525","DECAY_DATE":null,"SEMIMAJOR_AXIS":"6941.111","TLE_LINE2":"2 53232  97.6544 133.6077 0001169  94.3682 265.7676 15.01271602 35257","MEAN_ANOMALY":"265.7676","ECCENTRICITY":"0.00011690","MEAN_ELEMENT_THEORY":"SGP4","MEAN_MOTION_DDOT":"0.0000000000000","EPOCH":"2023-03-12T03:42:29.551680","REF_FRAME":"TEME","RA_OF_ASC_NODE":"133.6077","ELEMENT_SET_NO":"999","EPHEMERIS_TYPE":"0","MEAN_MOTION_DOT":"0.00013488"}];
